# H-2A R/B                
1 42918U 17048B   17247.46476809  .00000526  00000-0  41632-3 0  9991
2 42918  20.0238  81.9901 7236574 189.8184 138.9648  2.30531906   370